$$SOE
2460714.500000000, A.D. 2025-Feb-08 00:00:00.0000, 6.517363311286734E+08, 4.096875746498828E+07, -1.969707122905000E+07,
2460721.500000000, A.D. 2025-Feb-15 00:00:00.0000, 6.517489066746627E+08, 4.909750018717813E+07, -1.947214309987110E+07,
2460728.500000000, A.D. 2025-Feb-22 00:00:00.0000, 6.516482934416819E+08, 5.721766831185506E+07, -1.924383326686785E+07,
2460735.500000000, A.D. 2025-Mar-01 00:00:00.0000, 6.514347970412339E+08, 6.532787705893084E+07, -1.901219001001568E+07,
2460742.500000000, A.D. 2025-Mar-08 00:00:00.0000, 6.511087358749428E+08, 7.342674961835684E+07, -1.877726191036189E+07,
2460749.500000000, A.D. 2025-Mar-15 00:00:00.0000, 6.506704409595091E+08, 8.151291892645963E+07, -1.853909769125393E+07,
2460756.500000000, A.D. 2025-Mar-22 00:00:00.0000, 6.501202535491724E+08, 8.958502802852240E+07, -1.829774597135649E+07,
2460763.500000000, A.D. 2025-Mar-29 00:00:00.0000, 6.494585241333407E+08, 9.764172818559811E+07, -1.805325532665599E+07,
2460770.500000000, A.D. 2025-Apr-05 00:00:00.0000, 6.486856131341206E+08, 1.056816778639675E+08, -1.780567443510261E+07,
2460777.500000000, A.D. 2025-Apr-12 00:00:00.0000, 6.478018913775287E+08, 1.137035427117055E+08, -1.755505211901847E+07,
2460784.500000000, A.D. 2025-Apr-19 00:00:00.0000, 6.468077401511968E+08, 1.217059956414983E+08, -1.730143734040047E+07,
2460791.500000000, A.D. 2025-Apr-26 00:00:00.0000, 6.457035511202364E+08, 1.296877168171622E+08, -1.704487919088361E+07,
2460798.500000000, A.D. 2025-May-03 00:00:00.0000, 6.444897262149147E+08, 1.376473935635380E+08, -1.678542688544175E+07,
2460805.500000000, A.D. 2025-May-10 00:00:00.0000, 6.431666775187178E+08, 1.455837202089155E+08, -1.652312976191441E+07,
2460812.500000000, A.D. 2025-May-17 00:00:00.0000, 6.417348271935486E+08, 1.534953978194058E+08, -1.625803729321156E+07,
2460819.500000000, A.D. 2025-May-24 00:00:00.0000, 6.401946076160214E+08, 1.613811337711470E+08, -1.599019913269186E+07,
2460826.500000000, A.D. 2025-May-31 00:00:00.0000, 6.385464621425313E+08, 1.692396414715231E+08, -1.571966520568508E+07,
2460833.500000000, A.D. 2025-Jun-07 00:00:00.0000, 6.367908461017339E+08, 1.770696414344834E+08, -1.544648571193910E+07,
2460840.500000000, A.D. 2025-Jun-14 00:00:00.0000, 6.349282256498060E+08, 1.848698630438092E+08, -1.517071087655967E+07,
2460847.500000000, A.D. 2025-Jun-21 00:00:00.0000, 6.329590757059134E+08, 1.926390437334260E+08, -1.489239082835527E+07,
2460854.500000000, A.D. 2025-Jun-28 00:00:00.0000, 6.308838800962282E+08, 2.003759273493236E+08, -1.461157574829996E+07,
2460861.500000000, A.D. 2025-Jul-05 00:00:00.0000, 6.287031323894005E+08, 2.080792638496205E+08, -1.432831597272409E+07,
2460868.500000000, A.D. 2025-Jul-12 00:00:00.0000, 6.264173362323427E+08, 2.157478095376714E+08, -1.404266200773595E+07,
2460875.500000000, A.D. 2025-Jul-19 00:00:00.0000, 6.240270053758367E+08, 2.233803272532766E+08, -1.375466451918295E+07,
2460882.500000000, A.D. 2025-Jul-26 00:00:00.0000, 6.215326635996869E+08, 2.309755864654931E+08, -1.346437432194430E+07,
2460889.500000000, A.D. 2025-Aug-02 00:00:00.0000, 6.189348446024789E+08, 2.385323632888643E+08, -1.317184237267251E+07,
2460896.500000000, A.D. 2025-Aug-09 00:00:00.0000, 6.162340918790329E+08, 2.460494404088186E+08, -1.287711976917626E+07,
2460903.500000000, A.D. 2025-Aug-16 00:00:00.0000, 6.134309586623538E+08, 2.535256068536023E+08, -1.258025776848532E+07,
2460910.500000000, A.D. 2025-Aug-23 00:00:00.0000, 6.105260082228143E+08, 2.609596576298145E+08, -1.228130784887807E+07,
2460917.500000000, A.D. 2025-Aug-30 00:00:00.0000, 6.075198148536177E+08, 2.683503939359148E+08, -1.198032178746836E+07,
2460924.500000000, A.D. 2025-Sep-06 00:00:00.0000, 6.044129641242467E+08, 2.756966249542798E+08, -1.167735154126768E+07,
2460931.500000000, A.D. 2025-Sep-13 00:00:00.0000, 6.012060507314076E+08, 2.829971687395667E+08, -1.137244898108476E+07,
2460938.500000000, A.D. 2025-Sep-20 00:00:00.0000, 5.978996772214584E+08, 2.902508505591622E+08, -1.106566591263616E+07,
2460945.500000000, A.D. 2025-Sep-27 00:00:00.0000, 5.944944546428342E+08, 2.974565017969874E+08, -1.075705422749543E+07,
2460952.500000000, A.D. 2025-Oct-04 00:00:00.0000, 5.909910031113441E+08, 3.046129599598828E+08, -1.044666595466338E+07,
2460959.500000000, A.D. 2025-Oct-11 00:00:00.0000, 5.873899519144551E+08, 3.117190688437913E+08, -1.013455325542566E+07,
2460966.500000000, A.D. 2025-Oct-18 00:00:00.0000, 5.836919394380704E+08, 3.187736785856025E+08, -9.820768409891531E+06,
2460973.500000000, A.D. 2025-Oct-25 00:00:00.0000, 5.798976130551428E+08, 3.257756456120244E+08, -9.505363807139695E+06,
2460980.500000000, A.D. 2025-Nov-01 00:00:00.0000, 5.760076290153378E+08, 3.327238325014451E+08, -9.188391941415027E+06,
2460987.500000000, A.D. 2025-Nov-08 00:00:00.0000, 5.720226523701091E+08, 3.396171077279629E+08, -8.869905420262560E+06,
2460994.500000000, A.D. 2025-Nov-15 00:00:00.0000, 5.679433570809537E+08, 3.464543452296893E+08, -8.549957003139883E+06,
2461001.500000000, A.D. 2025-Nov-22 00:00:00.0000, 5.637704267135463E+08, 3.532344240219896E+08, -8.228599689684615E+06,
2461008.500000000, A.D. 2025-Nov-29 00:00:00.0000, 5.595045555643462E+08, 3.599562289909781E+08, -7.905886751066998E+06,
2461015.500000000, A.D. 2025-Dec-06 00:00:00.0000, 5.551464479417529E+08, 3.666186527317663E+08, -7.581871506828189E+06,
2461022.500000000, A.D. 2025-Dec-13 00:00:00.0000, 5.506968160356431E+08, 3.732205950621215E+08, -7.256607162528887E+06,
2461029.500000000, A.D. 2025-Dec-20 00:00:00.0000, 5.461563798690524E+08, 3.797609612351574E+08, -6.930146945137024E+06,
2461036.500000000, A.D. 2025-Dec-27 00:00:00.0000, 5.415258682580874E+08, 3.862386614424893E+08, -6.602544225995362E+06,
2461043.500000000, A.D. 2026-Jan-03 00:00:00.0000, 5.368060193205835E+08, 3.926526109928399E+08, -6.273852547838658E+06,
2461050.500000000, A.D. 2026-Jan-10 00:00:00.0000, 5.319975806432099E+08, 3.990017304880018E+08, -5.944125621360362E+06,
2461057.500000000, A.D. 2026-Jan-17 00:00:00.0000, 5.271013093395730E+08, 4.052849459055139E+08, -5.613417320069253E+06,
2461064.500000000, A.D. 2026-Jan-24 00:00:00.0000, 5.221179720772395E+08, 4.115011886117004E+08, -5.281781678629249E+06,
2461071.500000000, A.D. 2026-Jan-31 00:00:00.0000, 5.170483450971071E+08, 4.176493952987117E+08, -4.949272897328496E+06,
2461078.500000000, A.D. 2026-Feb-07 00:00:00.0000, 5.118932142866477E+08, 4.237285077893111E+08, -4.615945362883449E+06,
2461085.500000000, A.D. 2026-Feb-14 00:00:00.0000, 5.066533755601910E+08, 4.297374726951785E+08, -4.281853709927708E+06,
2461092.500000000, A.D. 2026-Feb-21 00:00:00.0000, 5.013296359339826E+08, 4.356752415065802E+08, -3.947052911486238E+06,
2461099.500000000, A.D. 2026-Feb-28 00:00:00.0000, 4.959228142110405E+08, 4.415407722672114E+08, -3.611598204596341E+06,
2461106.500000000, A.D. 2026-Mar-07 00:00:00.0000, 4.904337392168192E+08, 4.473330308846269E+08, -3.275544821500570E+06,
2461113.500000000, A.D. 2026-Mar-14 00:00:00.0000, 4.848632483616648E+08, 4.530509897441750E+08, -2.938947971524209E+06,
2461120.500000000, A.D. 2026-Mar-21 00:00:00.0000, 4.792121883132793E+08, 4.586936265242397E+08, -2.601863000279635E+06,
2461127.500000000, A.D. 2026-Mar-28 00:00:00.0000, 4.734814157693821E+08, 4.642599242410060E+08, -2.264345457733750E+06,
2461134.500000000, A.D. 2026-Apr-04 00:00:00.0000, 4.676717977262953E+08, 4.697488715570178E+08, -1.926451098510891E+06,
2461141.500000000, A.D. 2026-Apr-11 00:00:00.0000, 4.617842115170336E+08, 4.751594629937690E+08, -1.588235868763864E+06,
2461148.500000000, A.D. 2026-Apr-18 00:00:00.0000, 4.558195447781407E+08, 4.804906990419880E+08, -1.249755894550294E+06,
2461155.500000000, A.D. 2026-Apr-25 00:00:00.0000, 4.497786953913783E+08, 4.857415861847159E+08, -9.110674744904339E+05,
2461162.500000000, A.D. 2026-May-02 00:00:00.0000, 4.436625714314798E+08, 4.909111368039144E+08, -5.722270817376673E+05,
2461169.500000000, A.D. 2026-May-09 00:00:00.0000, 4.374720912451916E+08, 4.959983689046531E+08, -2.332913919264674E+05,
2461176.500000000, A.D. 2026-May-16 00:00:00.0000, 4.312081840402008E+08, 5.010023057954017E+08, 1.056826396607757E+05,
2461183.500000000, A.D. 2026-May-23 00:00:00.0000, 4.248717910363010E+08, 5.059219767467201E+08, 4.446377305497527E+05,
2461190.500000000, A.D. 2026-May-30 00:00:00.0000, 4.184638651002525E+08, 5.107564189474841E+08, 7.835164698897302E+05,
2461197.500000000, A.D. 2026-Jun-06 00:00:00.0000, 4.119853685466006E+08, 5.155046774852613E+08, 1.122261525197715E+06,
2461204.500000000, A.D. 2026-Jun-13 00:00:00.0000, 4.054372727707360E+08, 5.201658035504079E+08, 1.460815536930561E+06,
2461211.500000000, A.D. 2026-Jun-20 00:00:00.0000, 3.988205592134137E+08, 5.247388537899309E+08, 1.799120985724658E+06,
2461218.500000000, A.D. 2026-Jun-27 00:00:00.0000, 3.921362199580957E+08, 5.292228904710494E+08, 2.137120160050005E+06,
2461225.500000000, A.D. 2026-Jul-04 00:00:00.0000, 3.853852579607607E+08, 5.336169816796587E+08, 2.474755160701334E+06,
2461232.500000000, A.D. 2026-Jul-11 00:00:00.0000, 3.785686871659836E+08, 5.379202014219748E+08, 2.811967907794058E+06,
2461239.500000000, A.D. 2026-Jul-18 00:00:00.0000, 3.716875326019080E+08, 5.421316296552746E+08, 3.148700143605798E+06,
2461246.500000000, A.D. 2026-Jul-25 00:00:00.0000, 3.647428304784520E+08, 5.462503522506354E+08, 3.484893429020971E+06,
2461253.500000000, A.D. 2026-Aug-01 00:00:00.0000, 3.577356283367242E+08, 5.502754608397623E+08, 3.820489125050634E+06,
2461260.500000000, A.D. 2026-Aug-08 00:00:00.0000, 3.506669854644270E+08, 5.542060525103182E+08, 4.155428336652726E+06,
2461267.500000000, A.D. 2026-Aug-15 00:00:00.0000, 3.435379739922842E+08, 5.580412298005097E+08, 4.489651817491353E+06,
2461274.500000000, A.D. 2026-Aug-22 00:00:00.0000, 3.363496799104449E+08, 5.617801022143110E+08, 4.823100005162776E+06,
2461281.500000000, A.D. 2026-Aug-29 00:00:00.0000, 3.291032017152348E+08, 5.654217878843765E+08, 5.155713284639686E+06,
$$EOE